INMARSAT 4-F2 (SOUTHPA*)
1 28899U 05044A   26107.75233260 -.00000253  00000+0  00000+0 0  9992
2 28899   5.0142  43.7336 0002521 335.8770 240.6191  1.00271095 74918
GSAT-8 (GAGAN/PRN 127)  
1 37605U 11022A   26107.94870645  .00000092  00000+0  00000+0 0  9995
2 37605   1.9751  82.5223 0005456 223.1951 296.9539  1.00271569 52619
LUCH 5A (SDCM/PRN 140)  
1 37951U 11074B   26107.68567243 -.00000040  00000+0  00000+0 0  9998
2 37951   8.6009  74.6804 0002679 291.9764 252.9125  1.00271626 52447
SES-5 (EGNOS/PRN 136)   
1 38652U 12036A   26107.93879287  .00000039  00000+0  00000+0 0  9995
2 38652   0.0585 301.8144 0001711  75.9885 171.2120  1.00270550 43851
GSAT-10 (GAGAN/PRN 128) 
1 38779U 12051B   26107.95425314 -.00000159  00000+0  00000+0 0  9996
2 38779   0.0488 264.7429 0006587 176.2797 191.5928  1.00270669 49497
LUCH 5B (SDCM/PRN 125)  
1 38977U 12061A   26107.15025909 -.00000127  00000+0  00000+0 0  9990
2 38977  10.3525  50.4730 0001925 213.9958 338.6489  1.00272497 48998
ASTRA 5B (EGNOS/PRN 123)
1 39617U 14011B   26107.94246641  .00000143  00000+0  00000+0 0  9991
2 39617   0.0668 309.8166 0002913  52.3890 206.6444  1.00271871 44060
LUCH 5V (SDCM/PRN 141)  
1 39727U 14023A   26107.95659315 -.00000261  00000+0  00000+0 0  9995
2 39727   4.9839  70.3327 0002073 332.0037 242.8346  1.00275139 43751
GSAT-15 (GAGAN/PRN 139) 
1 41028U 15065A   26107.95633315 -.00000252  00000+0  00000+0 0  9991
2 41028   0.0450  69.2943 0002921 344.2484 230.3328  1.00270226 38194
EUTELSAT 117 WEST B (W*)
1 41589U 16038B   26107.90177269 -.00000006  00000+0  00000+0 0  9997
2 41589   0.0099  41.9660 0000234 306.4566  65.2574  1.00270869 36058
SES-15 (WAAS/PRN 133)   
1 42709U 17026A   26107.69832582  .00000067  00000+0  00000+0 0  9998
2 42709   0.0274 319.6719 0001318  28.2724 340.1256  1.00265039  6824
QZS-2 (QZSS/PRN 194)    
1 42738U 17028A   26107.24072517 -.00000198  00000+0  00000+0 0  9993
2 42738  39.5227 244.0421 0741049 270.7350 276.1592  1.00250096  7013
QZS-3 (QZSS/PRN 199)    
1 42917U 17048A   26107.96300652 -.00000342  00000+0  00000+0 0  9998
2 42917   0.0562 206.9204 0001329 159.5492 313.2959  1.00275075 31655
QZS-4 (QZSS/PRN 195)    
1 42965U 17062A   26107.53725203 -.00000295  00000+0  00000+0 0  9990
2 42965  40.1448 344.2588 0746242 270.6567 284.4855  1.00267905 31191
BEIDOU-3 G1 (PRN 130)   
1 43683U 18085A   26107.89823271 -.00000100  00000+0  00000+0 0  9992
2 43683   2.9207  99.0190 0007233 331.8196 258.6777  1.00265854 27451
EUTELSAT 5 WEST B (EGN*)
1 44624U 19067A   26107.93679953 -.00000036  00000+0  00000+0 0  9998
2 44624   0.0785  33.1567 0003245 358.2534 146.9012  1.00271587 23831
BEIDOU-3 G2 (PRN 144)   
1 45344U 20017A   26107.95364647 -.00000134  00000+0  00000+0 0  9997
2 45344   2.7427  46.3559 0002486 346.6968 236.3811  1.00272418 22652
BEIDOU-3 G3 (PRN 143)   
1 45807U 20040A   26107.03282819 -.00000346  00000+0  00000+0 0  9991
2 45807   2.2969  67.2887 0003703 326.9022 293.2977  1.00275589 21457
GALAXY 30 (WAAS/PRN 135)
1 46114U 20056C   26107.91296610  .00000000  00000+0  00000+0 0  9997
2 46114   0.0179 240.5099 0002101 148.9180  20.2611  1.00270512 20685
QZS-1R (QZSS/PRN 196)   
1 49336U 21096A   26107.25339285 -.00000192  00000+0  00000+0 0  9997
2 49336  37.3379  80.4811 0750572 270.6290  81.1773  1.00275906 16401
QZS-6 (QZSS/PRN 200)    
1 62876U 25023A   26107.95572648 -.00000227  00000+0  00000+0 0  9993
2 62876   0.0155 277.6257 0001871 112.9590 250.0774  1.00268966  4357
